[{"OBJECT_NAME":"STARLINK-31311","OBJECT_ID":"2024-027T","EPOCH":"2026-03-09T23:26:47.851008","MEAN_MOTION":15.30172647,"ECCENTRICITY":0.00013077,"INCLINATION":53.1608,"RA_OF_ASC_NODE":306.0707,"ARG_OF_PERICENTER":72.0046,"MEAN_ANOMALY":288.1097,"EPHEMERIS_TYPE":0,"CLASSIFICATION_TYPE":"U","NORAD_CAT_ID":58948,"ELEMENT_SET_NO":999,"REV_AT_EPOCH":11740,"BSTAR":-1.1276791e-5,"MEAN_MOTION_DOT":-6.93e-6,"MEAN_MOTION_DDOT":0},{"OBJECT_NAME":"TEVEL2-6","OBJECT_ID":"2025-052F","EPOCH":"2026-03-09T15:35:24.554400","MEAN_MOTION":15.30760889,"ECCENTRICITY":0.0004769,"INCLINATION":97.4016,"RA_OF_ASC_NODE":325.0381,"ARG_OF_PERICENTER":95.6604,"MEAN_ANOMALY":264.5181,"EPHEMERIS_TYPE":0,"CLASSIFICATION_TYPE":"U","NORAD_CAT_ID":63215,"ELEMENT_SET_NO":999,"REV_AT_EPOCH":5486,"BSTAR":0.00070909,"MEAN_MOTION_DOT":0.00021046,"MEAN_MOTION_DDOT":0}]
